     2.100          NAVIGATION                              RINEX VERSION / TYPE
fic2rin                                 10/29/2009 01:11:13 PGM / RUN BY / DATE
                                                            END OF HEADER
20 09 10 28 11 59 44.0  .689402222633D-04 -.909494701773D-12  .000000000000D+00
     .900000000000D+01  .118750000000D+01  .508021161121D-08  .198770828266D+01
     .372529029846D-08  .391800177749D-02  .489875674248D-05  .515374736977D+04
     .302384000000D+06  .149011611938D-07 -.213442787709D+01 -.726431608200D-07
     .939855652349D+00  .272812500000D+03  .129981829204D+01 -.847535303247D-08
    -.121433629627D-09  .100000000000D+01  .155500000000D+04  .000000000000D+00
     .240000000000D+01  .000000000000D+00 -.745058059692D-08  .900000000000D+01
     .295206000000D+06  .400000000000D+01
 1 09 10 28 12  0  0.0 -.617112964392D-04 -.170530256582D-11  .000000000000D+00
     .150000000000D+02 -.392500000000D+02  .610918304342D-08  .189417133266D+01
    -.206939876080D-05  .380321824923D-02  .471435487270D-05  .515368815613D+04
     .302400000000D+06 -.614672899246D-07  .102823270888D+01 -.372529029846D-07
     .962142837705D+00  .288531250000D+03  .981643810731D+00 -.830713173967D-08
    -.650027076237D-10  .100000000000D+01  .155500000000D+04  .000000000000D+00
     .240000000000D+01  .630000000000D+02 -.190921127796D-07  .150000000000D+02
     .295206000000D+06  .400000000000D+01
 2 09 10 28 12  0  0.0  .185502693057D-03  .397903932026D-11  .000000000000D+00
     .800000000000D+01  .550000000000D+02  .504806741513D-08 -.619702572871D+00
     .282377004623D-05  .914365891367D-02  .815466046333D-05  .515372560310D+04
     .302400000000D+06  .152736902237D-06  .311459726974D+01 -.255182385445D-06
     .941076496985D+00  .216687500000D+03  .290828735313D+01 -.834177603988D-08
     .211080220910D-09  .100000000000D+01  .155500000000D+04  .000000000000D+00
     .240000000000D+01  .000000000000D+00 -.172294676304D-07  .800000000000D+01
     .295206000000D+06  .400000000000D+01
 3 09 10 28 12  0  0.0  .466770026833D-03  .522959453519D-11  .000000000000D+00
     .270000000000D+02 -.390937500000D+02  .535272296240D-08 -.876069909337D+00
    -.198185443878D-05  .126198218204D-01  .892393290997D-05  .515366716385D+04
     .302400000000D+06  .577419996262D-07  .196519254561D+01  .284984707832D-06
     .926407517506D+00  .188687500000D+03  .959544794675D+00 -.853964142463D-08
    -.271797035723D-09  .100000000000D+01  .155500000000D+04  .000000000000D+00
     .240000000000D+01  .000000000000D+00 -.465661287308D-08  .270000000000D+02
     .295206000000D+06  .400000000000D+01
 4 09 10 28 12  0  0.0 -.332072842866D-03 -.179625203600D-10  .000000000000D+00
     .910000000000D+02  .562500000000D+02  .504485299552D-08  .222984736712D+01
     .277906656265D-05  .896759110037D-02  .832974910736D-05  .515356340027D+04
     .302400000000D+06 -.109896063805D-06  .313275910950D+01 -.875443220139D-07
     .940258343957D+00  .212406250000D+03  .546275987593D+00 -.828355932921D-08
     .167149819604D-09  .100000000000D+01  .155500000000D+04  .000000000000D+00
     .340000000000D+01  .000000000000D+00 -.605359673500D-08  .910000000000D+02
     .295206000000D+06  .400000000000D+01
 5 09 10 28 12  0  0.0 -.556698068976D-04  .784439180279D-11  .000000000000D+00
     .420000000000D+02 -.109375000000D+01  .466162274673D-08  .776689194097D+00
     .353902578354D-07  .158490287140D-02  .497698783875D-05  .515358113861D+04
     .302400000000D+06  .186264514923D-07 -.211057107572D+01  .577419996262D-07
     .961009016214D+00  .281437500000D+03  .222843667522D+00 -.827498754359D-08
    -.176793078427D-09  .100000000000D+01  .155500000000D+04  .000000000000D+00
     .240000000000D+01  .000000000000D+00 -.931322574615D-08  .420000000000D+02
     .295206000000D+06  .400000000000D+01
 6 09 10 28 12  0  0.0  .257194507867D-03  .318323145621D-11  .000000000000D+00
     .640000000000D+02 -.424062500000D+02  .508521181948D-08  .143737741677D+01
    -.244192779064D-05  .577189400792D-02  .921636819839D-05  .515370289421D+04
     .302400000000D+06  .819563865662D-07  .203406979213D+01 -.111758708954D-06
     .933874665388D+00  .185093750000D+03 -.122237116023D+01 -.826748723117D-08
    -.252153360342D-09  .100000000000D+01  .155500000000D+04  .000000000000D+00
     .240000000000D+01  .000000000000D+00 -.512227416039D-08  .640000000000D+02
     .295206000000D+06  .400000000000D+01
 7 09 10 28 12  0  0.0  .876653939486D-05 -.682121026330D-12  .000000000000D+00
     .900000000000D+02  .356250000000D+02  .443518474325D-08 -.233602466224D+01
     .189617276192D-05  .323819601908D-02  .733882188797D-05  .515364583015D+04
     .302400000000D+06 -.558793544769D-08 -.112703998803D-01 -.167638063431D-07
     .969574682449D+00  .247968750000D+03  .300395716454D+01 -.804104922769D-08
     .388587614805D-09  .100000000000D+01  .155500000000D+04  .000000000000D+00
     .340000000000D+01  .000000000000D+00 -.107102096081D-07  .900000000000D+02
     .295206000000D+06  .400000000000D+01
 8 09 10 28 12  0  0.0 -.108620151877D-04  .969748725765D-10  .000000000000D+00
     .460000000000D+02  .377187500000D+02  .394980738247D-08 -.296868527924D+01
     .210106372833D-05  .110176941380D-01  .711902976036D-05  .515361555862D+04
     .302400000000D+06 -.134110450745D-06  .522331754928D-01 -.130385160446D-07
     .990830659777D+00  .262593750000D+03  .304749873118D+01 -.771639284731D-08
     .416088760338D-09  .100000000000D+01  .155500000000D+04  .000000000000D+00
     .340000000000D+01  .000000000000D+00 -.372529029846D-08  .460000000000D+02
     .295206000000D+06  .400000000000D+01
 9 09 10 28 12  0  0.0  .854199752212D-04  .204636307899D-11  .000000000000D+00
     .200000000000D+02  .460625000000D+02  .414588697855D-08  .309367039485D+01
     .224635004997D-05  .206183532719D-01  .758096575737D-05  .515362631989D+04
     .302400000000D+06  .357627868652D-06 -.441581076139D-01 -.113621354103D-06
     .978437136726D+00  .237625000000D+03  .151860944827D+01 -.766031908304D-08
     .384301721995D-09  .100000000000D+01  .155500000000D+04  .000000000000D+00
     .240000000000D+01  .000000000000D+00 -.558793544769D-08  .200000000000D+02
     .295206000000D+06  .400000000000D+01
10 09 10 28 12  0  0.0 -.269748270512D-04 -.909494701773D-12  .000000000000D+00
     .730000000000D+02 -.106250000000D+01  .479198531971D-08  .519261318095D+00
     .856816768646D-07  .867104076315D-02  .505708158016D-05  .515338860893D+04
     .302400000000D+06 -.316649675369D-07 -.208361949310D+01  .182539224625D-06
     .956066797643D+00  .278187500000D+03  .617575754772D+00 -.842070789914D-08
    -.233224000430D-09  .100000000000D+01  .155500000000D+04  .000000000000D+00
     .340000000000D+01  .000000000000D+00 -.279396772385D-08  .730000000000D+02
     .295206000000D+06  .400000000000D+01
11 09 10 28 12  0  0.0 -.264230184257D-04 -.181898940355D-11  .000000000000D+00
     .350000000000D+02  .470000000000D+02  .603596570791D-08 -.245480420518D+01
     .240653753281D-05  .101052388782D-01  .853091478348D-05  .515370779419D+04
     .302400000000D+06  .447034835815D-07  .290682455209D+01 -.689178705215D-07
     .889340934540D+00  .176125000000D+03  .748299757574D+00 -.864000274794D-08
     .230723896291D-09  .100000000000D+01  .155500000000D+04  .000000000000D+00
     .240000000000D+01  .000000000000D+00 -.116415321827D-07  .350000000000D+02
     .295206000000D+06  .400000000000D+01
12 09 10 28 12  0  0.0 -.198071356863D-03  .534328137292D-11  .000000000000D+00
     .300000000000D+01 -.419687500000D+02  .469376694280D-08 -.223554333814D+01
    -.219047069550D-05  .305534014478D-02  .506266951561D-05  .515353983116D+04
     .302400000000D+06 -.949949026108D-07  .104133287988D+01  .502914190292D-07
     .968235378021D+00  .284781250000D+03 -.579856831765D+00 -.823641450830D-08
    -.120362156424D-09  .100000000000D+01  .155500000000D+04  .000000000000D+00
     .240000000000D+01  .000000000000D+00 -.116415321827D-07  .300000000000D+01
     .295206000000D+06  .400000000000D+01
14 09 10 28 12  0  0.0 -.318218953907D-04  .488853402203D-11  .000000000000D+00
     .780000000000D+02 -.163125000000D+02  .383908848487D-08 -.440480259542D-01
    -.849366188049D-06  .506144051906D-02  .966526567936D-05  .515366452599D+04
     .302400000000D+06 -.372529029846D-07 -.101746366711D+01  .102445483208D-06
     .987506890883D+00  .210843750000D+03 -.213053253879D+01 -.776425198369D-08
    -.653598653579D-10  .100000000000D+01  .155500000000D+04  .000000000000D+00
     .240000000000D+01  .000000000000D+00 -.884756445885D-08  .780000000000D+02
     .295206000000D+06  .400000000000D+01
15 09 10 28 12  0  0.0 -.320384744555D-03  .000000000000D+00  .000000000000D+00
     .980000000000D+02 -.171562500000D+02  .448268672190D-08  .183743555279D+00
    -.894069671631D-06  .190219143406D-02  .991672277451D-05  .515368140793D+04
     .302400000000D+06  .298023223877D-07 -.107480877869D+01 -.428408384323D-07
     .955319667824D+00  .183500000000D+03 -.501317325856D+00 -.811105214359D-08
    -.148220459691D-09  .100000000000D+01  .155500000000D+04  .000000000000D+00
     .240000000000D+01  .000000000000D+00 -.977888703346D-08  .980000000000D+02
     .295206000000D+06  .400000000000D+01
17 09 10 28 12  0  0.0  .971150584519D-04  .329691829393D-11  .000000000000D+00
     .300000000000D+02 -.286250000000D+02  .452983154281D-08  .464827543693D+00
    -.148266553879D-05  .474678142928D-02  .106208026409D-04  .515375393677D+04
     .302400000000D+06  .242143869400D-07  .210160345519D+01  .782310962677D-07
     .959754509833D+00  .173906250000D+03 -.265056589434D+01 -.807140763510D-08
    -.230009580822D-09  .100000000000D+01  .155500000000D+04  .000000000000D+00
     .240000000000D+01  .000000000000D+00 -.102445483208D-07  .300000000000D+02
     .295206000000D+06  .400000000000D+01
